PERSEUS-M1              
1 40039U 14033AF  26171.38128338  .00001465  00000+0  13720-3 0  9991
2 40039  97.9641 115.5653 0010078 289.2139  70.7991 14.95639538651110
POLYITAN-1              
1 40042U 14033AJ  26170.59745425  .00015082  00000+0  47014-3 0  9992
2 40042  98.0942 197.0866 0008761 134.5443 225.6514 15.33326342653963
TIGRISAT                
1 40043U 14033AK  26171.34979712  .00001472  00000+0  17429-3 0  9990
2 40043  97.7835 321.2886 0050483  65.0761 295.5688 14.85172276646098
AEROCUBE 6A             
1 40045U 14033AM  26171.02917940  .00003931  00000+0  33179-3 0  9994
2 40045  97.7254 337.9480 0038659   8.3765 351.8095 14.98131862647048
AEROCUBE 6B             
1 40046U 14033AN  26171.02874344  .00004060  00000+0  32996-3 0  9995
2 40046  97.7250 337.7440 0038098 359.5463   0.5719 14.99592335647185
CANX-4                  
1 40055U 14034C   26171.39431421  .00000652  00000+0  90911-4 0  9996
2 40055  98.3118  46.8251 0012926   7.0319 353.1072 14.81269424645009
CANX-5                  
1 40056U 14034D   26171.46025957  .00000655  00000+0  91270-4 0  9990
2 40056  98.3120  46.9372 0012919   7.0403 353.0987 14.81286790635822
UKUBE-1                 
1 40074U 14037F   26170.94486741  .00007166  00000+0  40346-3 0  9998
2 40074  98.4240 174.5065 0002807 127.2512 232.8973 15.13591351648971
BRITE-PL2 (HEWELIUSZ)   
1 40119U 14049B   26171.31895785  .00001722  00000+0  16422-3 0  9995
2 40119  97.9101 283.3430 0015385  99.1118 261.1844 14.94603402641918
AEROCUBE 5C             
1 40965U 15058B   26171.38934752  .00001568  00000+0  14809-3 0  9995
2 40965  64.7662 252.6285 0130892  62.0280 299.4006 14.91464756366134
AEROCUBE 7              
1 40966U 15058C   26171.44339308  .00002336  00000+0  19493-3 0  9997
2 40966  64.7612 234.6168 0120641  60.4023 300.9047 14.95741024366445
FOX-1A (AO-85)          
1 40967U 15058D   26171.43798106  .00001657  00000+0  15762-3 0  9992
2 40967  64.7745 268.8811 0130605  55.3496 305.9846 14.90981421114057
SINOD-D 1               
1 40968U 15058E   26171.35410212  .00002337  00000+0  19469-3 0  9997
2 40968  64.7745 248.9954 0119256  51.8221 309.3563 14.95921108117138
SNAP-3 ALICE            
1 40970U 15058G   26171.18605534  .00123021  00000+0  14266-2 0  9997
2 40970  64.7494  93.5606 0027278  10.9470 349.2264 15.60714090117352
LMRST-SAT               
1 40971U 15058H   26171.39411390  .00001512  00000+0  14608-3 0  9997
2 40971  64.7750 265.3615 0132237  57.3809 303.9985 14.90600585114034
SNAP-3 EDDIE            
1 40972U 15058J   26171.17364434  .00117223  00000+0  12952-2 0  9996
2 40972  64.7418  84.3057 0026977  14.7886 345.4044 15.61994061119496
PROPCUBE 3              
1 40973U 15058K   26171.35489909  .00001989  00000+0  17337-3 0  9996
2 40973  64.7677 242.6387 0124207  58.6612 302.6588 14.94270594115271
BISONSAT                
1 40974U 15058L   26171.33107355  .00011284  00000+0  54486-3 0  9992
2 40974  64.7582 163.4794 0079422  45.9815 314.7817 15.16253024116095
SNAP-3 JIMI             
1 40975U 15058M   26171.45105124  .00003616  00000+0  25405-3 0  9997
2 40975  64.7633 209.4453 0106344  54.0536 307.0390 15.02320729114711
PROPCUBE 1 (FLORA)      
1 40976U 15058N   26171.35198918  .00001612  00000+0  16064-3 0  9995
2 40976  64.7742 285.4273 0130904  59.7091 301.6897 14.89233326116730
SINOD-D 3               
1 40977U 15058P   26171.45403242  .00002342  00000+0  20489-3 0  9993
2 40977  64.7724 265.6178 0119447  56.8356 304.4148 14.94031938115242
HORYU-4                 
1 41340U 16012D   26171.37382522  .00528215  11166-3  10448-2 0  9991
2 41340  30.9842  55.5784 0006572 292.5150  67.4817 15.98761555571321
RAVAN                   
1 41849U 16067B   26171.26160767  .00045505  00000+0  67877-3 0  9994
2 41849  97.9878  61.1885 0003898  22.2879 337.8542 15.54942003528171
CELTEE 1                
1 41850U 16067C   26171.10424451  .00004605  00000+0  21929-3 0  9996
2 41850  98.0669  37.8698 0001126 129.3909 230.7424 15.19706183526323
OPTICUBE 04             
1 41851U 16067D   26171.32696426  .00001872  00000+0  12036-3 0  9996
2 41851  98.0696  23.7745 0016961 105.8379 254.4720 15.09671004525642
AEROCUBE 8D             
1 41852U 16067E   26171.17504018  .00006264  00000+0  25856-3 0  9999
2 41852  98.0674  41.5731 0004844 116.1739 243.9995 15.24432262526527
AEROCUBE 8C             
1 41853U 16067F   26170.60887759  .00005876  00000+0  24098-3 0  9998
2 41853  98.0546  38.1882 0006503  62.3132 297.8763 15.24674232526434
CORVUS BC2              
1 42846U 17042X   26171.44990433  .00002866  00000+0  19859-3 0  9997
2 42846  97.4078 332.6724 0014620 100.3566 259.9310 15.06316764487559
CORVUS BC1              
1 42847U 17042Y   26171.44414657  .00002398  00000+0  16617-3 0  9996
2 42847  97.4109 333.4833 0013522  79.4836 280.7914 15.06483462487586
MAKERSAT 0              
1 43016U 17073D   26171.18420895  .00014694  00000+0  39936-3 0  9992
2 43016  97.4616  53.7262 0104941 262.1211  96.8109 15.32181843466924
